[{"OBJECT_NAME":"STARLINK-30825","OBJECT_ID":"2023-178L","EPOCH":"2026-03-09T05:44:21.548256","MEAN_MOTION":15.30189727,"ECCENTRICITY":0.00010009,"INCLINATION":53.1614,"RA_OF_ASC_NODE":3.0548,"ARG_OF_PERICENTER":72.71,"MEAN_ANOMALY":287.4011,"EPHEMERIS_TYPE":0,"CLASSIFICATION_TYPE":"U","NORAD_CAT_ID":58384,"ELEMENT_SET_NO":999,"REV_AT_EPOCH":12982,"BSTAR":3.6171006e-5,"MEAN_MOTION_DOT":7.12e-6,"MEAN_MOTION_DDOT":0},{"OBJECT_NAME":"CZ-6A DEB","OBJECT_ID":"2022-151QB","EPOCH":"2026-03-08T18:03:47.471328","MEAN_MOTION":15.32168285,"ECCENTRICITY":0.00205863,"INCLINATION":98.6246,"RA_OF_ASC_NODE":151.4486,"ARG_OF_PERICENTER":181.9757,"MEAN_ANOMALY":178.1404,"EPHEMERIS_TYPE":0,"CLASSIFICATION_TYPE":"U","NORAD_CAT_ID":54890,"ELEMENT_SET_NO":999,"REV_AT_EPOCH":17659,"BSTAR":0.012866954,"MEAN_MOTION_DOT":0.00424465,"MEAN_MOTION_DDOT":0}]
